CAS-2T & KS-1Q          
1 41847U 16066G   21005.39584996  .00000068  00000-0  20969-4 0  9998
2 41847  98.6272  63.6473 0365171 347.1315  12.0738 14.38133589218441
NAYIF-1 (EO-88)         
1 42017U 17008BX  21005.47081415  .00002228  00000-0  85980-4 0  9996
2 42017  97.3378  75.9037 0005284 342.0402  18.0649 15.27326119216372
ZHUHAI-1 02 (CAS-4B)    
1 42759U 17034B   21005.45933235  .00000389  00000-0  36866-4 0  9997
2 42759  43.0192 357.0382 0010344 229.7278 266.8921 15.10031226196501
ZHUHAI-1 01 (CAS-4A)    
1 42761U 17034D   21005.45926297  .00000409  00000-0  38045-4 0  9994
2 42761  43.0202 356.2064 0010981 230.4650 266.6536 15.10111918196501
MAX VALIER SAT          
1 42778U 17036P   21005.40053407  .00001253  00000-0  55903-4 0  9993
2 42778  97.2794  59.1861 0012904  38.1839 322.0310 15.23115788196464
RADFXSAT (FOX-1B)       
1 43017U 17073E   21005.46580784  .00000629  00000-0  53289-4 0  9991
2 43017  97.7173 275.8392 0257295 111.8457 251.0334 14.79242879169023
FOX-1D (AO-92)          
1 43137U 18004AC  21005.47106260  .00001519  00000-0  64307-4 0  9995
2 43137  97.4261  81.0815 0010469  69.6089 290.6272 15.24689588165826
DIWATA-2B               
1 43678U 18084H   21005.52158602  .00000427  00000-0  48213-4 0  9991
2 43678  97.9049 130.2002 0008894 223.5927 136.4562 14.91697892119144
ES'HAIL 2               
1 43700U 18090A   21005.33955031  .00000153  00000-0  00000-0 0  9998
2 43700   0.0186  43.0746 0001670 279.0872 291.0070  1.00270202  7734
FOX-1CLIFF (AO-95)      
1 43770U 18099N   21005.43194077  .00000232  00000-0  26318-4 0  9992
2 43770  97.6860  79.0719 0013260 239.6709 120.3201 14.95161999114098
ITASAT 1                
1 43786U 18099AE  21005.45129078  .00000002  00000-0  53430-5 0  9991
2 43786  97.6875  79.6550 0014113 232.6835 127.3100 14.95475303114127
JY1SAT (JO-97)          
1 43803U 18099AX  21005.44009600  .00000015  00000-0  64795-5 0  9998
2 43803  97.6838  79.4197 0013989 232.8559 127.1385 14.95689383114124
PSAT2 (NO-104)          
1 44354U 19036R   21005.50144880  .00010303  00000-0  14111-3 0  9995
2 44354  28.5304 129.4772 0343927 315.7790  41.5793 15.08696012 84308
BRICSAT2 (NO-103)       
1 44355U 19036S   21005.50879788  .00022805  00000-0  28309-3 0  9992
2 44355  28.5284 105.9431 0303715 354.1313   5.5771 15.19136473 84540
JAISAT-1                
1 44419U 19038F   21005.47147247  .00001252  00000-0  73750-4 0  9993
2 44419  97.5671 331.0661 0021972 150.3398 209.9084 15.13273773 83146
DUCHIFAT-3              
1 44854U 19089C   21005.30590431  .00000587  00000-0  53554-4 0  9991
2 44854  36.9674 345.2913 0008911 261.3327  98.6397 14.99282897 58602
RS-44 & BREEZE-KM R/B   
1 44909U 19096E   21005.30454752 -.00000001  00000-0 -57694-4 0  9997
2 44909  82.5197 221.1906 0218294 114.4751 247.9286 12.79708036 48003
ORBITAL FACTORY 2 (OF-2)
1 45113U 19071C   21005.46521114  .00003186  00000-0  10485-3 0  9993
2 45113  51.6429 107.0212 0012894  65.9611 294.2720 15.34537383 52137
HUSKYSAT-1              
1 45119U 19071J   21005.48468162  .00003436  00000-0  11178-3 0  9992
2 45119  51.6423 106.4005 0012216  62.9742 297.2486 15.34660661 52138
BY70-2                  
1 45857U 20042B   21005.55936909  .00001241  00000-0  18497-3 0  9991
2 45857  97.9994  82.9541 0011059  26.4289 333.7474 14.76602615 27507
SALSAT                  
1 46495U 20068K   21003.79626984 -.00000062  00000-0 -13213-7 0  9998
2 46495  97.6807 302.4303 0015061 271.7675  88.1824 15.03311882 14592
BY70-3                  
1 46839U 20079N   21005.47849028  .00002609  00000-0  85261-4 0  9991
2 46839  97.2592  82.5490 0008998  74.7246  52.7450 15.32593295  9239
OSCAR 7 (AO-7)          
1 07530U 74089B   21005.54730677 -.00000028  00000-0  10692-3 0  9992
2 07530 101.8317 340.3748 0012236 336.5413 134.7254 12.53646792111314
